{"type":"FeatureCollection","features":[{"type":"Feature","properties":{"name":"Altadena CDP, CA"},"geometry":{"type":"Polygon","coordinates":[[[-118.17061899994665,34.18479499987912],[-118.1694880003427,34.18143199981801],[-118.16727499974196,34.18143199981801],[-118.1674129998342,34.183072000269625],[-118.16412899990397,34.18308600006194],[-118.16411499966026,34.18143600015516],[-118.142201999676,34.18156499996497],[-118.13188899975283,34.17693100023504],[-118.13190800001938,34.176507000256116],[-118.12862800028711,34.17651699982442],[-118.12863099976185,34.17522900033871],[-118.1185019999617,34.175298000238854],[-118.11834499960284,34.17593899979217],[-118.11735799993895,34.17591100006295],[-118.11735499956588,34.17530700035094],[-118.11661899997213,34.17530999989262],[-118.11695999955566,34.16960799969942],[-118.11302399969726,34.16958000009941],[-118.11301299982661,34.17039299999437],[-118.11142399956493,34.17039500005299],[-118.11154400011387,34.16859700029155],[-118.10936200037355,34.16859099998763],[-118.1093730002442,34.167588000048276],[-118.09834200027065,34.167566999846564],[-118.09832300000406,34.168616000136225],[-118.09780199959715,34.168611999934576],[-118.09780300032037,34.169138000298766],[-118.09505800034037,34.1691759997403],[-118.09511000021894,34.16995300006079],[-118.09601999988992,34.17043299967185],[-118.09660900006891,34.17199899987017],[-118.09564699962102,34.17335800033547],[-118.09499800006593,34.17563499989914],[-118.09824199981318,34.175631000030165],[-118.10028800000936,34.1803710001171],[-118.1003950001395,34.1833280001387],[-118.10243899978752,34.184923000268924],[-118.10213800038694,34.18518700004139],[-118.10320399969358,34.18647799973834],[-118.1029280004074,34.18666100012028],[-118.10358600018331,34.186583999666816],[-118.10384300010125,34.187929000314725],[-118.10485900007748,34.189208999930344],[-118.10458799991584,34.1907079998636],[-118.10691899961905,34.19329600000038],[-118.1048089998488,34.19338300006876],[-118.10480800002388,34.194856000207764],[-118.10682300025789,34.19582899997234],[-118.11789500023936,34.20411600008927],[-118.13622700019246,34.21453000009358],[-118.1537120002237,34.215393999776545],[-118.16223599986867,34.217334999822555],[-118.1624280003876,34.21672999978306],[-118.1638910002526,34.21621899988196],[-118.16368600021318,34.21575699983753],[-118.1644119997612,34.21525700002231],[-118.16341500005154,34.215233000194296],[-118.16473200032664,34.213794000116664],[-118.16525899968302,34.212506000102856],[-118.164933999993,34.21222800027592],[-118.16724499960472,34.211755000135575],[-118.16715199971831,34.21118400031013],[-118.1660460002287,34.21001900029932],[-118.16565799989118,34.20724099974303],[-118.16395800019974,34.204894000304016],[-118.16273299998615,34.20458400003436],[-118.16269000032844,34.203471999911315],[-118.16151000032067,34.20166799981292],[-118.16065800037597,34.2017360003471],[-118.16085099982152,34.20131500033208],[-118.15954699996519,34.20000999970903],[-118.16013500031926,34.19872600031422],[-118.16344799966349,34.19978800025366],[-118.16259300024406,34.201641999768995],[-118.16397599974309,34.20148099991849],[-118.16841999958962,34.19338199994033],[-118.16852800044295,34.192094000092496],[-118.16650300016319,34.19123299980434],[-118.16680799976172,34.190317999681504],[-118.16750599972063,34.19053500022445],[-118.16749099965203,34.188808999907934],[-118.16858199997132,34.18880399973771],[-118.16862299997919,34.185446000104584],[-118.17027900018802,34.18592499980176],[-118.17061899994665,34.18479499987912]]]}}]}