{"type":"FeatureCollection","features":[{"type":"Feature","properties":{"name":"Burbank city, CA"},"geometry":{"type":"Polygon","coordinates":[[[-118.3703120001714,34.20119699991716],[-118.37031299999632,34.19637900007798],[-118.36115099976857,34.19465100025573],[-118.35775800005837,34.17216200027813],[-118.3547050001068,34.164946999742355],[-118.35715800000875,34.16490800016088],[-118.35715100033606,34.16128699981488],[-118.35310300032467,34.161289000089305],[-118.34511899955656,34.142635999825224],[-118.34111699957592,34.14537899964864],[-118.33880400031435,34.145227999785504],[-118.33102799995869,34.14831800035197],[-118.32211000012843,34.15572700008726],[-118.31767700015259,34.15631300034588],[-118.31581799955416,34.154453000118934],[-118.3129060000679,34.15399300035475],[-118.31032000009657,34.160759999817756],[-118.30781199994304,34.16113999995753],[-118.29687399985588,34.17153200008176],[-118.29933000013085,34.1733059998776],[-118.29639199980703,34.17612199999667],[-118.29779100009792,34.177145000067455],[-118.28781100026067,34.1876610001651],[-118.28349799993538,34.185849999855044],[-118.27998100037665,34.190696000170675],[-118.28009500017944,34.20746099970739],[-118.29276100044545,34.221654000009124],[-118.3374619999249,34.221312000297296],[-118.33454600024068,34.21561800020156],[-118.33641699963634,34.2145679998876],[-118.33773999975924,34.21127099974884],[-118.33980600004688,34.21119400022452],[-118.33992999989547,34.20650300005166],[-118.36298699990245,34.20681799979526],[-118.36226100035444,34.2012339997439],[-118.3703120001714,34.20119699991716]]]}}]}