{"type":"FeatureCollection","features":[{"type":"Feature","properties":{"name":"Glendale city, CA"},"geometry":{"type":"Polygon","coordinates":[[[-118.30781199994304,34.16113999995753],[-118.30433499966895,34.15883999987759],[-118.29894699981622,34.15769899989029],[-118.2956019997866,34.158798000320104],[-118.2915400004298,34.155776999818926],[-118.28049600003745,34.156332999805954],[-118.27898299994376,34.15320299990708],[-118.27556199974615,34.15316599982828],[-118.26234400000942,34.12767600030345],[-118.25425800003235,34.11876099973763],[-118.25113300011078,34.12094699991093],[-118.25364000043939,34.123302999649006],[-118.25326499962236,34.124448999689704],[-118.23523800016609,34.12672000007178],[-118.23627300040891,34.1344980000454],[-118.2279160002702,34.13560100000154],[-118.22787699991214,34.13808400029549],[-118.22914899998142,34.13807900009422],[-118.22877400006269,34.146031999725814],[-118.22623099974908,34.14978900012646],[-118.21097199983903,34.14621999980277],[-118.20543199965034,34.14743099980153],[-118.20270099991404,34.15063299991323],[-118.19819099994527,34.15162600027167],[-118.19819500014324,34.14904500011371],[-118.18183499986814,34.14906299998752],[-118.1815829999731,34.1499090001383],[-118.18415700024885,34.15973199995264],[-118.19047800023715,34.170319000020726],[-118.19097000033172,34.17320400034419],[-118.18892199958741,34.178563999842005],[-118.19236000040176,34.180450000116835],[-118.19643799965209,34.17989399992995],[-118.20810300001047,34.18757199974408],[-118.20808499956883,34.1906559996958],[-118.21216199989254,34.19270299993624],[-118.21344400000754,34.19408500033424],[-118.21280799997291,34.19533999974453],[-118.21672299991491,34.19778500001605],[-118.21767799979179,34.20294599963195],[-118.21500700032993,34.20353599970154],[-118.21500499978181,34.20640399971928],[-118.22026799996105,34.2050299998277],[-118.2202639997631,34.20630500001354],[-118.22511900041168,34.20564099981488],[-118.2331540003351,34.20783000025276],[-118.23523700034117,34.209136000107385],[-118.23519999963297,34.21303100025669],[-118.23953100039988,34.217518000087395],[-118.24009000044161,34.21678999976],[-118.24402700012494,34.21849999971226],[-118.24432599987568,34.22024899988245],[-118.24875300000377,34.22224099973977],[-118.24852799987286,34.24395700032791],[-118.2434680000832,34.24659499978275],[-118.24337199982374,34.252306000135505],[-118.23873999965625,34.25225900022708],[-118.23848699993623,34.267090000239484],[-118.25669000001793,34.26718999975884],[-118.2565000000471,34.252265999946516],[-118.2652639998916,34.25238000017509],[-118.26529700040187,34.250265000214696],[-118.2666720004033,34.25077899979288],[-118.26687099969662,34.22184600015099],[-118.29276100044545,34.221654000009124],[-118.28009500017944,34.20746099970739],[-118.27998100037665,34.190696000170675],[-118.28349799993538,34.185849999855044],[-118.28781100026067,34.1876610001651],[-118.29743999957032,34.17751999992698],[-118.29639199980703,34.17612199999667],[-118.29933000013085,34.1733059998776],[-118.29687399985588,34.17153200008176],[-118.30781199994304,34.16113999995753]]]}}]}