{"type":"FeatureCollection","features":[{"type":"Feature","properties":{"name":"La Ca\u00f1ada Flintridge city, CA"},"geometry":{"type":"Polygon","coordinates":[[[-118.23186999967196,34.21832100016769],[-118.23076500000727,34.217227000234686],[-118.2289649998584,34.21728400032328],[-118.22897200042941,34.216700999630255],[-118.22786600004149,34.21694100010724],[-118.22635299994779,34.21629099998869],[-118.22605400019705,34.213944000005746],[-118.22200399963751,34.21290400008639],[-118.22209200039937,34.206178000108224],[-118.2202639997631,34.20630500001354],[-118.22026799996105,34.2050299998277],[-118.21500499978181,34.20640399971928],[-118.21500700032993,34.20353599970154],[-118.21767799979179,34.20294599963195],[-118.21769899970816,34.2011499997122],[-118.21699900009942,34.200464000282636],[-118.21672299991491,34.19778500001605],[-118.2153360002179,34.19727499974881],[-118.21459200022825,34.19618499967482],[-118.21280799997291,34.19533999974453],[-118.21344400000754,34.19408500033424],[-118.21216199989254,34.19270299993624],[-118.21100799982402,34.192760000263874],[-118.20808499956883,34.1906559996958],[-118.20778400016826,34.18930399968475],[-118.20810300001047,34.18757199974408],[-118.20582400018581,34.186916000039155],[-118.20471600014808,34.18566699994293],[-118.19643799965209,34.17989399992995],[-118.19236000040176,34.180450000116835],[-118.19082300001863,34.18007999984693],[-118.18892199958741,34.178563999842005],[-118.18929400003141,34.178344999845585],[-118.18888099957954,34.17787600036416],[-118.18742600011048,34.179229000277125],[-118.18309299969374,34.180102999736306],[-118.18162200033113,34.17970299963638],[-118.17423000011505,34.18275299996689],[-118.17593900002733,34.185689000318845],[-118.1774439997251,34.185290000176096],[-118.18138899980433,34.1865489997753],[-118.1799860002138,34.18750300022139],[-118.18033500019325,34.18804800016913],[-118.17877400041898,34.18721799975318],[-118.17832699963192,34.189596999692604],[-118.17833599985276,34.19448399973799],[-118.1775309997637,34.194114000095645],[-118.17504299970169,34.19844099987983],[-118.17312100025241,34.19844600022164],[-118.17367899957092,34.19701600034628],[-118.17208799965941,34.197017999773855],[-118.17057399974082,34.1992179996574],[-118.16802799995246,34.20111099977513],[-118.167418999682,34.202278000371436],[-118.16764399981288,34.204413999881744],[-118.17023800018012,34.204481999686756],[-118.17024400002794,34.20534199991613],[-118.17366799970027,34.20615199996944],[-118.17343500007175,34.206929999965226],[-118.17473700027824,34.20652600016476],[-118.1750929999304,34.20805699984604],[-118.1757969997371,34.20767200021097],[-118.17650599956666,34.210348999925344],[-118.17610200023391,34.21088100033417],[-118.17511899986967,34.21026899977448],[-118.1746009998358,34.211238000279685],[-118.17570100037594,34.21207000030762],[-118.17604500033252,34.21136100032889],[-118.17671499980402,34.21208800011209],[-118.17759600006106,34.2120710002143],[-118.17834000005071,34.21380299983523],[-118.17774400019907,34.21372100021769],[-118.17767499970377,34.21416199979439],[-118.17982800003006,34.214892000289375],[-118.17983999972562,34.21532800034027],[-118.18405900033954,34.21611200020801],[-118.1837310002765,34.21841800020876],[-118.18260200032236,34.21887000003026],[-118.18111099996997,34.218176999648016],[-118.18123200034381,34.21935099964857],[-118.18185699960947,34.220180000361076],[-118.1848159998497,34.22100499965574],[-118.18480400015413,34.222621999794036],[-118.18886999970887,34.222654000223145],[-118.18906300005273,34.22347599974378],[-118.1898499997001,34.2236390001966],[-118.19142499971807,34.2265499998765],[-118.19044999974973,34.227942000323516],[-118.19067999990351,34.22896599979502],[-118.19002100030264,34.23111699985453],[-118.19429199989679,34.233269000328264],[-118.1959530001285,34.233319000150026],[-118.1968250001647,34.23489399976171],[-118.19822899958014,34.236040000145415],[-118.19820799966371,34.23678899976506],[-118.21741599985096,34.23745599986969],[-118.21751899978312,34.23385699971077],[-118.22186800009341,34.233942999854754],[-118.2216789999475,34.24273300009629],[-118.22276000022106,34.24273800003762],[-118.22383700029665,34.24174199963106],[-118.22347700044655,34.241433000084605],[-118.22367300026512,34.24081199963485],[-118.2247050001349,34.23989799966819],[-118.22473000024925,34.23757900025718],[-118.22620099961183,34.236203000046835],[-118.22713799994533,34.234079999669525],[-118.2279299996156,34.23364800021242],[-118.2274240001756,34.23295399995136],[-118.22744599991692,34.23119900036483],[-118.2269599996701,34.2311839999695],[-118.22741499995479,34.23056499979384],[-118.22661700043676,34.229106999840795],[-118.22770100018505,34.22841399974675],[-118.22775999973626,34.227586000317835],[-118.22687600000451,34.22580399976964],[-118.22699700037836,34.22446500028515],[-118.22855700032768,34.222207000323785],[-118.22856499982532,34.22109100029669],[-118.22959599987016,34.22084800034943],[-118.23186999967196,34.21832100016769]]]}}]}