{"type":"FeatureCollection","features":[{"type":"Feature","properties":{"name":"La Crescenta-Montrose CDP, CA"},"geometry":{"type":"Polygon","coordinates":[[[-118.24875300000377,34.22249499996746],[-118.24432599987568,34.22024899988245],[-118.24402700012494,34.21849999971226],[-118.2434670002583,34.2190690000834],[-118.24009000044161,34.21678999976],[-118.23995900002205,34.21768000034338],[-118.23953100039988,34.217518000087395],[-118.2395330000497,34.216603999840885],[-118.23757499971708,34.2154059996685],[-118.23766900032675,34.21456299975928],[-118.23519999963297,34.21303100025669],[-118.23498200007305,34.20897499971211],[-118.2331540003351,34.20783000025276],[-118.23224999961354,34.20832799965948],[-118.23193900016724,34.20756899992552],[-118.23096900022176,34.2071410003123],[-118.2305850000822,34.20758100018884],[-118.23083600015238,34.207095999638256],[-118.22967100021322,34.206673999676504],[-118.22911299999642,34.20704000005364],[-118.22935599967067,34.20655700004884],[-118.22890999960681,34.20639300000536],[-118.22835300011323,34.20677800028224],[-118.22860500000827,34.20628099986478],[-118.22792700014085,34.20602799976884],[-118.22744799956673,34.206549000271586],[-118.22561599963082,34.206428999806654],[-118.22572799978383,34.205735999630235],[-118.2221090001178,34.20568199984997],[-118.22200399963751,34.21290400008639],[-118.22605400019705,34.213944000005746],[-118.22635299994779,34.21629099998869],[-118.22786600004149,34.21694100010724],[-118.22897200042941,34.216700999630255],[-118.2289649998584,34.21728400032328],[-118.23076500000727,34.217227000234686],[-118.23187300004501,34.21820799970329],[-118.22959599987016,34.22084800034943],[-118.22856499982532,34.22109100029669],[-118.22855700032768,34.222207000323785],[-118.22694299995167,34.22462699980919],[-118.22770100018505,34.22841399974675],[-118.22661700043676,34.229106999840795],[-118.22741499995479,34.23056499979384],[-118.2269599996701,34.2311839999695],[-118.22744599991692,34.23119900036483],[-118.2274240001756,34.23295399995136],[-118.22797800019448,34.23340900019999],[-118.2262419996197,34.23542300002047],[-118.22620099961183,34.236203000046835],[-118.22473000024925,34.23757900025718],[-118.2247050001349,34.23989799966819],[-118.22367300026512,34.24081199963485],[-118.22347700044655,34.241433000084605],[-118.22383700029665,34.24174199963106],[-118.22276000022106,34.24273800003762],[-118.2216789999475,34.24273300009629],[-118.22161100017544,34.25156000027574],[-118.24337199982374,34.252306000135505],[-118.2434680000832,34.24659499978275],[-118.24412099983627,34.245925000061284],[-118.24527999992765,34.246372000301406],[-118.24700700028156,34.24402399987894],[-118.24852799987286,34.24395700032791],[-118.24875300000377,34.22249499996746]]]}}]}