{"type":"FeatureCollection","features":[{"type":"Feature","properties":{"name":"Pasadena city, CA"},"geometry":{"type":"Polygon","coordinates":[[[-118.19820799966371,34.23678899976506],[-118.19002100030264,34.23111699985453],[-118.1898499997001,34.2236390001966],[-118.18123200034381,34.21935099964857],[-118.18405900033954,34.21611200020801],[-118.1746009998358,34.211238000279685],[-118.17473700027824,34.20652600016476],[-118.16764399981288,34.204413999881744],[-118.17208799965941,34.197017999773855],[-118.17504299970169,34.19844099987983],[-118.17833599985276,34.19448399973799],[-118.17877400041898,34.18721799975318],[-118.18138899980433,34.1865489997753],[-118.17423000011505,34.18275299996689],[-118.18742600011048,34.179229000277125],[-118.19097000033172,34.17320400034419],[-118.1815829999731,34.1499090001383],[-118.18456099958159,34.145401000118184],[-118.18043200027763,34.14100899967133],[-118.18567799984014,34.13887500015831],[-118.18609700013981,34.13373200017553],[-118.18019299990303,34.12642500007724],[-118.17654099972677,34.1266240003504],[-118.17695500000356,34.123141000340816],[-118.1703279996935,34.126944999665525],[-118.16595199961907,34.12598299973437],[-118.16845399992481,34.123914000223586],[-118.14894799981172,34.1256619997411],[-118.14216900006404,34.11955700026682],[-118.128260999866,34.1178300001529],[-118.13117400007549,34.12967800028788],[-118.11382700013648,34.132940999762646],[-118.11003000019524,34.14154200023676],[-118.09548000011478,34.14163200012595],[-118.09429300043432,34.13524499975136],[-118.08950399990798,34.13527499973004],[-118.085985999626,34.131432000314476],[-118.08373299974063,34.14046200003671],[-118.07892200037128,34.13960900029399],[-118.08611000037288,34.14568599980355],[-118.07935599984123,34.1446560001557],[-118.07342400001538,34.15021399964893],[-118.06782399955226,34.15028700025082],[-118.0682010000191,34.17295000022716],[-118.06562099989557,34.17238799963896],[-118.06563400031436,34.175103999654276],[-118.0774440004377,34.17764500000527],[-118.07786100018923,34.16346899971171],[-118.08115500016521,34.16162099964183],[-118.07824600015368,34.1727600001958],[-118.08187999988829,34.17350899969697],[-118.08606000014417,34.167504999645374],[-118.08416700010888,34.16512900027613],[-118.09303700025858,34.17429099980465],[-118.09044000041662,34.178838000228126],[-118.09825000020913,34.17886500017194],[-118.10047999962998,34.196844000360855],[-118.10480700019896,34.196844000360855],[-118.10691899961905,34.19329600000038],[-118.09824199981318,34.175631000030165],[-118.09499800006593,34.17563499989914],[-118.09505800034037,34.1691759997403],[-118.09834200027065,34.167566999846564],[-118.11695999955566,34.16960799969942],[-118.11735799993895,34.17591100006295],[-118.12863099976185,34.17522900033871],[-118.142201999676,34.18156499996497],[-118.1694880003427,34.18143199981801],[-118.16489600035818,34.20016900004411],[-118.15954699996519,34.20000999970903],[-118.16715199971831,34.21118400031013],[-118.16341500005154,34.215233000194296],[-118.17872800038823,34.21536300017154],[-118.17909999993392,34.2225749996524],[-118.18698599989442,34.223194999648825],[-118.18690100040394,34.251543000176994],[-118.19525699981942,34.25151999973217],[-118.19551399973736,34.23659599991041],[-118.19820799966371,34.23678899976506]]]}}]}